[{"OBJECT_NAME":"ONEWEB-0161","OBJECT_ID":"2021-025M","EPOCH":"2026-01-14T19:45:46.325376","MEAN_MOTION":13.13470548,"ECCENTRICITY":0.0001747,"INCLINATION":87.8998,"RA_OF_ASC_NODE":350.7017,"ARG_OF_PERICENTER":90.1512,"MEAN_ANOMALY":269.9817,"EPHEMERIS_TYPE":0,"CLASSIFICATION_TYPE":"U","NORAD_CAT_ID":48053,"ELEMENT_SET_NO":999,"REV_AT_EPOCH":23337,"BSTAR":0.00024098,"MEAN_MOTION_DOT":1.01e-6,"MEAN_MOTION_DDOT":0},{"OBJECT_NAME":"ONEWEB-0158","OBJECT_ID":"2021-025N","EPOCH":"2026-01-14T22:26:39.659136","MEAN_MOTION":13.13468958,"ECCENTRICITY":0.0001752,"INCLINATION":87.9006,"RA_OF_ASC_NODE":350.6658,"ARG_OF_PERICENTER":72.9073,"MEAN_ANOMALY":287.2248,"EPHEMERIS_TYPE":0,"CLASSIFICATION_TYPE":"U","NORAD_CAT_ID":48054,"ELEMENT_SET_NO":999,"REV_AT_EPOCH":23351,"BSTAR":-0.00012606,"MEAN_MOTION_DOT":-3.3e-7,"MEAN_MOTION_DDOT":0},{"OBJECT_NAME":"ONEWEB-0157","OBJECT_ID":"2021-025P","EPOCH":"2026-01-14T23:03:13.252320","MEAN_MOTION":13.1347021,"ECCENTRICITY":0.0001593,"INCLINATION":87.9001,"RA_OF_ASC_NODE":350.6665,"ARG_OF_PERICENTER":96.5026,"MEAN_ANOMALY":263.6284,"EPHEMERIS_TYPE":0,"CLASSIFICATION_TYPE":"U","NORAD_CAT_ID":48055,"ELEMENT_SET_NO":999,"REV_AT_EPOCH":23345,"BSTAR":-0.00088562,"MEAN_MOTION_DOT":-3.11e-6,"MEAN_MOTION_DDOT":0},{"OBJECT_NAME":"ONEWEB-0162","OBJECT_ID":"2021-025Q","EPOCH":"2026-01-14T22:28:53.654304","MEAN_MOTION":13.13469841,"ECCENTRICITY":0.0001892,"INCLINATION":87.901,"RA_OF_ASC_NODE":350.6743,"ARG_OF_PERICENTER":87.0312,"MEAN_ANOMALY":273.1034,"EPHEMERIS_TYPE":0,"CLASSIFICATION_TYPE":"U","NORAD_CAT_ID":48056,"ELEMENT_SET_NO":999,"REV_AT_EPOCH":23342,"BSTAR":-7.8788e-5,"MEAN_MOTION_DOT":-1.6e-7,"MEAN_MOTION_DDOT":0},{"OBJECT_NAME":"ONEWEB-0155","OBJECT_ID":"2021-025R","EPOCH":"2026-01-14T22:38:49.655328","MEAN_MOTION":13.13470231,"ECCENTRICITY":0.0001576,"INCLINATION":87.8999,"RA_OF_ASC_NODE":350.6764,"ARG_OF_PERICENTER":85.327,"MEAN_ANOMALY":274.8039,"EPHEMERIS_TYPE":0,"CLASSIFICATION_TYPE":"U","NORAD_CAT_ID":48057,"ELEMENT_SET_NO":999,"REV_AT_EPOCH":23356,"BSTAR":-0.0007323,"MEAN_MOTION_DOT":-2.55e-6,"MEAN_MOTION_DDOT":0},{"OBJECT_NAME":"ONEWEB-0149","OBJECT_ID":"2021-025S","EPOCH":"2026-01-14T23:10:32.178144","MEAN_MOTION":13.13470026,"ECCENTRICITY":0.0001979,"INCLINATION":87.9,"RA_OF_ASC_NODE":350.6658,"ARG_OF_PERICENTER":87.5212,"MEAN_ANOMALY":272.6144,"EPHEMERIS_TYPE":0,"CLASSIFICATION_TYPE":"U","NORAD_CAT_ID":48058,"ELEMENT_SET_NO":999,"REV_AT_EPOCH":23337,"BSTAR":-0.00043279,"MEAN_MOTION_DOT":-1.45e-6,"MEAN_MOTION_DDOT":0},{"OBJECT_NAME":"ONEWEB-0148","OBJECT_ID":"2021-025T","EPOCH":"2026-01-14T20:27:13.059072","MEAN_MOTION":13.13469064,"ECCENTRICITY":0.0002207,"INCLINATION":87.8997,"RA_OF_ASC_NODE":350.7061,"ARG_OF_PERICENTER":96.3096,"MEAN_ANOMALY":263.8284,"EPHEMERIS_TYPE":0,"CLASSIFICATION_TYPE":"U","NORAD_CAT_ID":48059,"ELEMENT_SET_NO":999,"REV_AT_EPOCH":23348,"BSTAR":0.00036567,"MEAN_MOTION_DOT":1.46e-6,"MEAN_MOTION_DDOT":0},{"OBJECT_NAME":"ONEWEB-0160","OBJECT_ID":"2021-025U","EPOCH":"2026-01-14T22:41:16.906848","MEAN_MOTION":13.13469859,"ECCENTRICITY":0.0002151,"INCLINATION":87.8997,"RA_OF_ASC_NODE":350.6849,"ARG_OF_PERICENTER":63.7199,"MEAN_ANOMALY":296.4151,"EPHEMERIS_TYPE":0,"CLASSIFICATION_TYPE":"U","NORAD_CAT_ID":48060,"ELEMENT_SET_NO":999,"REV_AT_EPOCH":23344,"BSTAR":-0.00061413,"MEAN_MOTION_DOT":-2.12e-6,"MEAN_MOTION_DDOT":0},{"OBJECT_NAME":"ONEWEB-0163","OBJECT_ID":"2021-025V","EPOCH":"2026-01-14T20:29:38.764032","MEAN_MOTION":13.13470413,"ECCENTRICITY":0.0001602,"INCLINATION":87.9004,"RA_OF_ASC_NODE":350.6918,"ARG_OF_PERICENTER":92.5379,"MEAN_ANOMALY":267.5933,"EPHEMERIS_TYPE":0,"CLASSIFICATION_TYPE":"U","NORAD_CAT_ID":48061,"ELEMENT_SET_NO":999,"REV_AT_EPOCH":23355,"BSTAR":0.00027787,"MEAN_MOTION_DOT":1.14e-6,"MEAN_MOTION_DDOT":0},{"OBJECT_NAME":"ONEWEB-0159","OBJECT_ID":"2021-025W","EPOCH":"2026-01-14T22:07:09.786720","MEAN_MOTION":13.1346917,"ECCENTRICITY":0.000177,"INCLINATION":87.9008,"RA_OF_ASC_NODE":350.6628,"ARG_OF_PERICENTER":91.5824,"MEAN_ANOMALY":268.5508,"EPHEMERIS_TYPE":0,"CLASSIFICATION_TYPE":"U","NORAD_CAT_ID":48062,"ELEMENT_SET_NO":999,"REV_AT_EPOCH":23348,"BSTAR":0.00076756,"MEAN_MOTION_DOT":2.93e-6,"MEAN_MOTION_DDOT":0},{"OBJECT_NAME":"ONEWEB-0164","OBJECT_ID":"2021-025X","EPOCH":"2026-01-14T21:40:19.616448","MEAN_MOTION":13.13471644,"ECCENTRICITY":0.0001749,"INCLINATION":87.9006,"RA_OF_ASC_NODE":350.6731,"ARG_OF_PERICENTER":80.3786,"MEAN_ANOMALY":279.7541,"EPHEMERIS_TYPE":0,"CLASSIFICATION_TYPE":"U","NORAD_CAT_ID":48063,"ELEMENT_SET_NO":999,"REV_AT_EPOCH":23346,"BSTAR":0.00040806,"MEAN_MOTION_DOT":1.62e-6,"MEAN_MOTION_DDOT":0},{"OBJECT_NAME":"ONEWEB-0167","OBJECT_ID":"2021-025Y","EPOCH":"2026-01-14T22:20:33.867456","MEAN_MOTION":13.134702,"ECCENTRICITY":0.0001037,"INCLINATION":87.8999,"RA_OF_ASC_NODE":350.6921,"ARG_OF_PERICENTER":88.377,"MEAN_ANOMALY":271.7478,"EPHEMERIS_TYPE":0,"CLASSIFICATION_TYPE":"U","NORAD_CAT_ID":48064,"ELEMENT_SET_NO":999,"REV_AT_EPOCH":23345,"BSTAR":0.00011299,"MEAN_MOTION_DOT":5.4e-7,"MEAN_MOTION_DDOT":0},{"OBJECT_NAME":"ONEWEB-0166","OBJECT_ID":"2021-025Z","EPOCH":"2026-01-14T22:53:28.122144","MEAN_MOTION":13.13469859,"ECCENTRICITY":0.0001882,"INCLINATION":87.9002,"RA_OF_ASC_NODE":350.6463,"ARG_OF_PERICENTER":88.6541,"MEAN_ANOMALY":271.4804,"EPHEMERIS_TYPE":0,"CLASSIFICATION_TYPE":"U","NORAD_CAT_ID":48065,"ELEMENT_SET_NO":999,"REV_AT_EPOCH":23353,"BSTAR":-0.00092066,"MEAN_MOTION_DOT":-3.23e-6,"MEAN_MOTION_DDOT":0},{"OBJECT_NAME":"ONEWEB-0151","OBJECT_ID":"2021-025AA","EPOCH":"2026-01-14T22:55:54.592608","MEAN_MOTION":13.13470521,"ECCENTRICITY":0.0001636,"INCLINATION":87.9004,"RA_OF_ASC_NODE":350.6728,"ARG_OF_PERICENTER":82.8909,"MEAN_ANOMALY":277.2406,"EPHEMERIS_TYPE":0,"CLASSIFICATION_TYPE":"U","NORAD_CAT_ID":48066,"ELEMENT_SET_NO":999,"REV_AT_EPOCH":23347,"BSTAR":-0.00093049,"MEAN_MOTION_DOT":-3.27e-6,"MEAN_MOTION_DDOT":0},{"OBJECT_NAME":"ONEWEB-0170","OBJECT_ID":"2021-025AB","EPOCH":"2026-01-14T23:08:04.183584","MEAN_MOTION":13.1346831,"ECCENTRICITY":0.0001631,"INCLINATION":87.8998,"RA_OF_ASC_NODE":350.6743,"ARG_OF_PERICENTER":68.5082,"MEAN_ANOMALY":291.6221,"EPHEMERIS_TYPE":0,"CLASSIFICATION_TYPE":"U","NORAD_CAT_ID":48067,"ELEMENT_SET_NO":999,"REV_AT_EPOCH":23343,"BSTAR":-0.00065331,"MEAN_MOTION_DOT":-2.26e-6,"MEAN_MOTION_DDOT":0},{"OBJECT_NAME":"ONEWEB-0168","OBJECT_ID":"2021-025AC","EPOCH":"2026-01-14T22:46:09.401952","MEAN_MOTION":13.13469659,"ECCENTRICITY":0.0001696,"INCLINATION":87.9009,"RA_OF_ASC_NODE":350.6648,"ARG_OF_PERICENTER":89.6703,"MEAN_ANOMALY":270.462,"EPHEMERIS_TYPE":0,"CLASSIFICATION_TYPE":"U","NORAD_CAT_ID":48068,"ELEMENT_SET_NO":999,"REV_AT_EPOCH":23344,"BSTAR":-0.00074125,"MEAN_MOTION_DOT":-2.58e-6,"MEAN_MOTION_DDOT":0},{"OBJECT_NAME":"ONEWEB-0173","OBJECT_ID":"2021-025AD","EPOCH":"2026-01-14T22:33:58.026816","MEAN_MOTION":13.13469602,"ECCENTRICITY":0.0001457,"INCLINATION":87.9008,"RA_OF_ASC_NODE":350.674,"ARG_OF_PERICENTER":94.0682,"MEAN_ANOMALY":266.0614,"EPHEMERIS_TYPE":0,"CLASSIFICATION_TYPE":"U","NORAD_CAT_ID":48069,"ELEMENT_SET_NO":999,"REV_AT_EPOCH":23368,"BSTAR":-0.00051504,"MEAN_MOTION_DOT":-1.75e-6,"MEAN_MOTION_DDOT":0}]
