ONEWEB-0161             
1 48053U 21025M   26014.82345284  .00000101  00000+0  24098-3 0  9996
2 48053  87.8998 350.7017 0001747  90.1512 269.9817 13.13470548233377
ONEWEB-0158             
1 48054U 21025N   26014.93518124 -.00000033  00000+0 -12606-3 0  9992
2 48054  87.9006 350.6658 0001752  72.9073 287.2248 13.13468958233514
ONEWEB-0157             
1 48055U 21025P   26014.96057005 -.00000311  00000+0 -88562-3 0  9995
2 48055  87.9001 350.6665 0001593  96.5026 263.6284 13.13470210233456
ONEWEB-0162             
1 48056U 21025Q   26014.93673211 -.00000016  00000+0 -78788-4 0  9998
2 48056  87.9010 350.6743 0001892  87.0312 273.1034 13.13469841233423
ONEWEB-0155             
1 48057U 21025R   26014.94363027 -.00000255  00000+0 -73230-3 0  9992
2 48057  87.8999 350.6764 0001576  85.3270 274.8039 13.13470231233568
ONEWEB-0149             
1 48058U 21025S   26014.96565021 -.00000145  00000+0 -43279-3 0  9991
2 48058  87.9000 350.6658 0001979  87.5212 272.6144 13.13470026233376
ONEWEB-0148             
1 48059U 21025T   26014.85223448  .00000146  00000+0  36567-3 0  9995
2 48059  87.8997 350.7061 0002207  96.3096 263.8284 13.13469064233482
ONEWEB-0160             
1 48060U 21025U   26014.94533457 -.00000212  00000+0 -61413-3 0  9995
2 48060  87.8997 350.6849 0002151  63.7199 296.4151 13.13469859233440
ONEWEB-0163             
1 48061U 21025V   26014.85392088  .00000114  00000+0  27787-3 0  9994
2 48061  87.9004 350.6918 0001602  92.5379 267.5933 13.13470413233555
ONEWEB-0159             
1 48062U 21025W   26014.92164105  .00000293  00000+0  76756-3 0  9998
2 48062  87.9008 350.6628 0001770  91.5824 268.5508 13.13469170233487
ONEWEB-0164             
1 48063U 21025X   26014.90300482  .00000162  00000+0  40806-3 0  9999
2 48063  87.9006 350.6731 0001749  80.3786 279.7541 13.13471644233468
ONEWEB-0167             
1 48064U 21025Y   26014.93094754  .00000054  00000+0  11299-3 0  9999
2 48064  87.8999 350.6921 0001037  88.3770 271.7478 13.13470200233458
ONEWEB-0166             
1 48065U 21025Z   26014.95379771 -.00000323  00000+0 -92066-3 0  9999
2 48065  87.9002 350.6463 0001882  88.6541 271.4804 13.13469859233530
ONEWEB-0151             
1 48066U 21025AA  26014.95549297 -.00000327  00000+0 -93049-3 0  9998
2 48066  87.9004 350.6728 0001636  82.8909 277.2406 13.13470521233471
ONEWEB-0170             
1 48067U 21025AB  26014.96393731 -.00000226  00000+0 -65331-3 0  9991
2 48067  87.8998 350.6743 0001631  68.5082 291.6221 13.13468310233432
ONEWEB-0168             
1 48068U 21025AC  26014.94871993 -.00000258  00000+0 -74125-3 0  9997
2 48068  87.9009 350.6648 0001696  89.6703 270.4620 13.13469659233442
ONEWEB-0173             
1 48069U 21025AD  26014.94025494 -.00000175  00000+0 -51504-3 0  9999
2 48069  87.9008 350.6740 0001457  94.0682 266.0614 13.13469602233684
